[{"OBJECT_NAME":"STARLINK-6232","OBJECT_ID":"2023-088AP","EPOCH":"2026-03-09T22:00:01.999584","MEAN_MOTION":15.10502686,"ECCENTRICITY":0.00015635,"INCLINATION":42.9998,"RA_OF_ASC_NODE":92.9965,"ARG_OF_PERICENTER":301.7502,"MEAN_ANOMALY":161.9647,"EPHEMERIS_TYPE":0,"CLASSIFICATION_TYPE":"U","NORAD_CAT_ID":57085,"ELEMENT_SET_NO":999,"REV_AT_EPOCH":558,"BSTAR":0.0033529169,"MEAN_MOTION_DOT":0.00056427,"MEAN_MOTION_DDOT":0},{"OBJECT_NAME":"OBJECT BE","OBJECT_ID":"2018-099BE","EPOCH":"2026-03-09T15:10:24.322944","MEAN_MOTION":15.09972337,"ECCENTRICITY":0.0006427,"INCLINATION":97.4031,"RA_OF_ASC_NODE":111.7891,"ARG_OF_PERICENTER":340.4925,"MEAN_ANOMALY":19.6058,"EPHEMERIS_TYPE":0,"CLASSIFICATION_TYPE":"U","NORAD_CAT_ID":43810,"ELEMENT_SET_NO":999,"REV_AT_EPOCH":39698,"BSTAR":0.00027209,"MEAN_MOTION_DOT":4.358e-5,"MEAN_MOTION_DDOT":0}]
